LEMUR-2-THE-CLEANER
1 58333U 23174CF  24002.77896753  .00013916  00000-0  71280-3 0  9990
2 58333  97.4721  79.9111 0011113  69.2835 290.9588 15.16652686  8489
